IRIDIUM 155             
1 43573U 18061E   23106.72113646  .00000473  00000+0  16173-3 0  9994
2 43573  86.4031 180.4178 0002243 103.3805 256.7641 14.34219997247458
IRIDIUM 154             
1 43574U 18061F   23106.70210850  .00000436  00000+0  14869-3 0  9997
2 43574  86.4037 180.5030 0002158  90.4329 269.7114 14.34220620247505
IRIDIUM 163             
1 43575U 18061G   23106.75285940  .00000469  00000+0  16037-3 0  9990
2 43575  86.4034 180.4331 0002383  92.3038 267.8430 14.34219412247488
IRIDIUM 156             
1 43576U 18061H   23107.21585865  .00000530  00000+0  18231-3 0  9999
2 43576  86.4033 180.2459 0002469  97.9276 262.2200 14.34222153247533
IRIDIUM 164             
1 43577U 18061J   23107.26659586  .00000511  00000+0  17550-3 0  9999
2 43577  86.4034 180.2472 0002336  90.9034 269.2429 14.34222726247590
IRIDIUM 159             
1 43578U 18061K   23106.74651004  .00000429  00000+0  14610-3 0  9991
2 43578  86.4033 180.4254 0002133  97.0960 263.0479 14.34219174247489
IRIDIUM 180             
1 43922U 19002A   23106.74601417  .00000257  00000+0  84790-4 0  9999
2 43922  86.3922 117.3613 0002320  87.1472 272.9989 14.34219569223096
IRIDIUM 176             
1 43923U 19002B   23106.73699622  .00000766  00000+0  11756-3 0  9990
2 43923  86.6055 117.4061 0002576  97.1559 262.9951 14.72250799228955
IRIDIUM 168             
1 43924U 19002C   23106.73967944  .00000249  00000+0  81934-4 0  9998
2 43924  86.3923 117.4085 0002190  88.2294 271.9153 14.34219446223076
IRIDIUM 173             
1 43925U 19002D   23107.49444051  .00000260  00000+0  85770-4 0  9997
2 43925  86.3921 117.0289 0002242  85.9937 274.1515 14.34220371223170
IRIDIUM 169             
1 43926U 19002E   23107.47019172  .00000609  00000+0  19243-3 0  9996
2 43926  86.4235 148.6388 0004062 159.4753 200.6609 14.38617290223920
IRIDIUM 172             
1 43927U 19002F   23106.79041898  .00000262  00000+0  86384-4 0  9997
2 43927  86.3920 117.3279 0002229  89.4203 270.7248 14.34218740223074
IRIDIUM 175             
1 43928U 19002G   23107.47809670  .00000732  00000+0  11206-3 0  9996
2 43928  86.1467 114.3412 0002486  93.1475 267.0026 14.72241902229058
IRIDIUM 171             
1 43929U 19002H   23106.77138484  .00000249  00000+0  81981-4 0  9998
2 43929  86.3930 117.5138 0002222  86.5233 273.6217 14.34220030223069
IRIDIUM 170             
1 43930U 19002J   23107.49079177  .00000792  00000+0  12165-3 0  9993
2 43930  86.6055 117.0957 0002489  94.4316 265.7186 14.72253711229079
IRIDIUM 167             
1 43931U 19002K   23106.55572849  .00000239  00000+0  78119-4 0  9992
2 43931  86.3922 117.4384 0002290  84.2546 275.8911 14.34217344223038
